{"type": "FeatureCollection", "features": [ {"type": "Feature", "properties": {"norad_id": 65304, "name": "DRAGON CRS-33", "group": "stations", "lat": -3.293682327339445, "lon": -74.32792310384792, "alt_km": 418.90580313565533, "timestamp": "2025-12-20T16:47:35.053298+00:00", "meta": {"OBJECT_NAME": "DRAGON CRS-33", "OBJECT_ID": "2025-186A", "EPOCH": "2025-12-20T05:10:04.568160", "MEAN_MOTION": 15.49679666, "ECCENTRICITY": 0.00031985, "INCLINATION": 51.6321, "RA_OF_ASC_NODE": 105.4589, "ARG_OF_PERICENTER": 275.1086, "MEAN_ANOMALY": 84.9538, "EPHEMERIS_TYPE": 0, "CLASSIFICATION_TYPE": "U", "NORAD_CAT_ID": 65304, "ELEMENT_SET_NO": 999, "REV_AT_EPOCH": 11, "BSTAR": 0.00013176766, "MEAN_MOTION_DOT": 6.989e-05, "MEAN_MOTION_DDOT": 0}, "tle": {"line1": "1 65304U 25186A   25354.21533065  .00006989  00000+0  13177-3 0  9997", "line2": "2 65304  51.6321 105.4589 0003198 275.1086  84.9538 15.49679666   118"}}, "geometry": {"type": "Point", "coordinates": [-74.32792310384792, -3.293682327339445]}}, {"type": "Feature", "properties": {"norad_id": 65586, "name": "PROGRESS-MS 32", "group": "stations", "lat": -3.293682833259718, "lon": -74.32792270186259, "alt_km": 418.90580317383865, "timestamp": "2025-12-20T16:47:35.053308+00:00", "meta": {"OBJECT_NAME": "PROGRESS-MS 32", "OBJECT_ID": "2025-204A", "EPOCH": "2025-12-20T05:10:04.568160", "MEAN_MOTION": 15.49679666, "ECCENTRICITY": 0.00031985, "INCLINATION": 51.6321, "RA_OF_ASC_NODE": 105.4589, "ARG_OF_PERICENTER": 275.1086, "MEAN_ANOMALY": 84.9538, "EPHEMERIS_TYPE": 0, "CLASSIFICATION_TYPE": "U", "NORAD_CAT_ID": 65586, "ELEMENT_SET_NO": 999, "REV_AT_EPOCH": 27, "BSTAR": 0.00013176766, "MEAN_MOTION_DOT": 6.989e-05, "MEAN_MOTION_DDOT": 0}, "tle": {"line1": "1 65586U 25204A   25354.21533065  .00006989  00000+0  13177-3 0  9990", "line2": "2 65586  51.6321 105.4589 0003198 275.1086  84.9538 15.49679666   277"}}, "geometry": {"type": "Point", "coordinates": [-74.32792270186259, -3.293682833259718]}}, {"type": "Feature", "properties": {"norad_id": 65616, "name": "CYGNUS NG-23", "group": "stations", "lat": -3.2936833391799714, "lon": -74.32792229987727, "alt_km": 418.9058032120265, "timestamp": "2025-12-20T16:47:35.053318+00:00", "meta": {"OBJECT_NAME": "CYGNUS NG-23", "OBJECT_ID": "2025-208A", "EPOCH": "2025-12-20T05:10:04.568160", "MEAN_MOTION": 15.49679666, "ECCENTRICITY": 0.00031985, "INCLINATION": 51.6321, "RA_OF_ASC_NODE": 105.4589, "ARG_OF_PERICENTER": 275.1086, "MEAN_ANOMALY": 84.9538, "EPHEMERIS_TYPE": 0, "CLASSIFICATION_TYPE": "U", "NORAD_CAT_ID": 65616, "ELEMENT_SET_NO": 999, "REV_AT_EPOCH": 22, "BSTAR": 0.00013176766, "MEAN_MOTION_DOT": 6.989e-05, "MEAN_MOTION_DDOT": 0}, "tle": {"line1": "1 65616U 25208A   25354.21533065  .00006989  00000+0  13177-3 0  9998", "line2": "2 65616  51.6321 105.4589 0003198 275.1086  84.9538 15.49679666   226"}}, "geometry": {"type": "Point", "coordinates": [-74.32792229987727, -3.2936833391799714]}}, {"type": "Feature", "properties": {"norad_id": 65729, "name": "DRAGONFLY", "group": "stations", "lat": 42.31142687775881, "lon": -131.24412239307696, "alt_km": 344.75032957034546, "timestamp": "2025-12-20T16:47:35.053329+00:00", "meta": {"OBJECT_NAME": "DRAGONFLY", "OBJECT_ID": "1998-067XH", "EPOCH": "2025-12-20T11:42:45.438624", "MEAN_MOTION": 15.74448787, "ECCENTRICITY": 0.0007438, "INCLINATION": 51.6254, "RA_OF_ASC_NODE": 96.0114, "ARG_OF_PERICENTER": 325.9909, "MEAN_ANOMALY": 34.0612, "EPHEMERIS_TYPE": 0, "CLASSIFICATION_TYPE": "U", "NORAD_CAT_ID": 65729, "ELEMENT_SET_NO": 999, "REV_AT_EPOCH": 1438, "BSTAR": 0.00098006, "MEAN_MOTION_DOT": 0.00147536, "MEAN_MOTION_DDOT": 0}, "tle": {"line1": "1 65729U 98067XH  25354.48802591  .00147536  00000+0  98006-3 0  9996", "line2": "2 65729  51.6254  96.0114 0007438 325.9909  34.0612 15.74448787 14381"}}, "geometry": {"type": "Point", "coordinates": [-131.24412239307696, 42.31142687775881]}}, {"type": "Feature", "properties": {"norad_id": 65731, "name": "1998-067XK", "group": "stations", "lat": -36.36102778836634, "lon": 61.11619621669265, "alt_km": 367.908078373679, "timestamp": "2025-12-20T16:47:35.053339+00:00", "meta": {"OBJECT_NAME": "1998-067XK", "OBJECT_ID": "1998-067XK", "EPOCH": "2025-12-20T00:10:02.026560", "MEAN_MOTION": 15.67078773, "ECCENTRICITY": 0.00047639, "INCLINATION": 51.6294, "RA_OF_ASC_NODE": 100.3244, "ARG_OF_PERICENTER": 292.7833, "MEAN_ANOMALY": 67.2659, "EPHEMERIS_TYPE": 0, "CLASSIFICATION_TYPE": "U", "NORAD_CAT_ID": 65731, "ELEMENT_SET_NO": 999, "REV_AT_EPOCH": 1428, "BSTAR": 0.00070175188, "MEAN_MOTION_DOT": 0.00076617, "MEAN_MOTION_DDOT": 0}, "tle": {"line1": "1 65731U 98067XK  25354.00696790  .00076617  00000+0  70175-3 0  9997", "line2": "2 65731  51.6294 100.3244 0004763 292.7833  67.2659 15.67078773 14280"}}, "geometry": {"type": "Point", "coordinates": [61.11619621669265, -36.36102778836634]}}, {"type": "Feature", "properties": {"norad_id": 65732, "name": "RSP-03", "group": "stations", "lat": 10.269331089040802, "lon": 104.1591977870937, "alt_km": 355.5790937351503, "timestamp": "2025-12-20T16:47:35.053350+00:00", "meta": {"OBJECT_NAME": "RSP-03", "OBJECT_ID": "1998-067XL", "EPOCH": "2025-12-19T10:11:34.022112", "MEAN_MOTION": 15.70283101, "ECCENTRICITY": 0.0005658, "INCLINATION": 51.6265, "RA_OF_ASC_NODE": 102.4221, "ARG_OF_PERICENTER": 294.5755, "MEAN_ANOMALY": 65.4652, "EPHEMERIS_TYPE": 0, "CLASSIFICATION_TYPE": "U", "NORAD_CAT_ID": 65732, "ELEMENT_SET_NO": 999, "REV_AT_EPOCH": 1421, "BSTAR": 0.00084699, "MEAN_MOTION_DOT": 0.00106087, "MEAN_MOTION_DDOT": 0}, "tle": {"line1": "1 65732U 98067XL  25353.42469933  .00106087  00000+0  84699-3 0  9991", "line2": "2 65732  51.6265 102.4221 0005658 294.5755  65.4652 15.70283101 14217"}}, "geometry": {"type": "Point", "coordinates": [104.1591977870937, 10.269331089040802]}}, {"type": "Feature", "properties": {"norad_id": 65733, "name": "GHS-01", "group": "stations", "lat": 37.00518543090032, "lon": -122.51073770556171, "alt_km": 335.976050691027, "timestamp": "2025-12-20T16:47:35.053360+00:00", "meta": {"OBJECT_NAME": "GHS-01", "OBJECT_ID": "1998-067XM", "EPOCH": "2025-12-20T11:41:11.075136", "MEAN_MOTION": 15.78117355, "ECCENTRICITY": 0.0008545, "INCLINATION": 51.6277, "RA_OF_ASC_NODE": 95.2602, "ARG_OF_PERICENTER": 329.3713, "MEAN_ANOMALY": 30.6788, "EPHEMERIS_TYPE": 0, "CLASSIFICATION_TYPE": "U", "NORAD_CAT_ID": 65733, "ELEMENT_SET_NO": 999, "REV_AT_EPOCH": 1440, "BSTAR": 0.0011085, "MEAN_MOTION_DOT": 0.00197582, "MEAN_MOTION_DDOT": 0}, "tle": {"line1": "1 65733U 98067XM  25354.48693374  .00197582  00000+0  11085-2 0  9995", "line2": "2 65733  51.6277  95.2602 0008545 329.3713  30.6788 15.78117355 14402"}}, "geometry": {"type": "Point", "coordinates": [-122.51073770556171, 37.00518543090032]}}, {"type": "Feature", "properties": {"norad_id": 65941, "name": "YOTSUBA-KULOVER", "group": "stations", "lat": -45.2993773611116, "lon": -26.871199270680755, "alt_km": 390.52976070456134, "timestamp": "2025-12-20T16:47:35.053370+00:00", "meta": {"OBJECT_NAME": "YOTSUBA-KULOVER", "OBJECT_ID": "1998-067XN", "EPOCH": "2025-12-19T10:32:35.848320", "MEAN_MOTION": 15.60329664, "ECCENTRICITY": 0.00017537, "INCLINATION": 51.6289, "RA_OF_ASC_NODE": 106.2819, "ARG_OF_PERICENTER": 320.2615, "MEAN_ANOMALY": 39.8249, "EPHEMERIS_TYPE": 0, "CLASSIFICATION_TYPE": "U", "NORAD_CAT_ID": 65941, "ELEMENT_SET_NO": 999, "REV_AT_EPOCH": 1090, "BSTAR": 0.0006131661, "MEAN_MOTION_DOT": 0.00050991, "MEAN_MOTION_DDOT": 0}, "tle": {"line1": "1 65941U 98067XN  25353.43930380  .00050991  00000+0  61317-3 0  9997", "line2": "2 65941  51.6289 106.2819 0001753 320.2615  39.8249 15.60329664 10907"}}, "geometry": {"type": "Point", "coordinates": [-26.871199270680755, -45.2993773611116]}}, {"type": "Feature", "properties": {"norad_id": 65942, "name": "BOTAN", "group": "stations", "lat": -29.982428142911814, "lon": 71.82685848332771, "alt_km": 376.55204341432363, "timestamp": "2025-12-20T16:47:35.053381+00:00", "meta": {"OBJECT_NAME": "BOTAN", "OBJECT_ID": "1998-067XP", "EPOCH": "2025-12-20T04:41:49.337088", "MEAN_MOTION": 15.64374422, "ECCENTRICITY": 0.00029517, "INCLINATION": 51.6284, "RA_OF_ASC_NODE": 101.583, "ARG_OF_PERICENTER": 302.22, "MEAN_ANOMALY": 57.8508, "EPHEMERIS_TYPE": 0, "CLASSIFICATION_TYPE": "U", "NORAD_CAT_ID": 65942, "ELEMENT_SET_NO": 999, "REV_AT_EPOCH": 1103, "BSTAR": 0.00087028097, "MEAN_MOTION_DOT": 0.0008541, "MEAN_MOTION_DDOT": 0}, "tle": {"line1": "1 65942U 98067XP  25354.19570992  .00085410  00000+0  87028-3 0  9992", "line2": "2 65942  51.6284 101.5830 0002951 302.2200  57.8508 15.64374422 11034"}}, "geometry": {"type": "Point", "coordinates": [71.82685848332771, -29.982428142911814]}}, {"type": "Feature", "properties": {"norad_id": 65943, "name": "E-KAGAKU-1", "group": "stations", "lat": -45.135326618946195, "lon": -27.306321700549702, "alt_km": 389.6782490399228, "timestamp": "2025-12-20T16:47:35.053391+00:00", "meta": {"OBJECT_NAME": "E-KAGAKU-1", "OBJECT_ID": "1998-067XQ", "EPOCH": "2025-12-18T08:24:49.666176", "MEAN_MOTION": 15.60193795, "ECCENTRICITY": 0.00013451, "INCLINATION": 51.6302, "RA_OF_ASC_NODE": 111.7666, "ARG_OF_PERICENTER": 249.8249, "MEAN_ANOMALY": 110.26, "EPHEMERIS_TYPE": 0, "CLASSIFICATION_TYPE": "U", "NORAD_CAT_ID": 65943, "ELEMENT_SET_NO": 999, "REV_AT_EPOCH": 1073, "BSTAR": 0.00084619625, "MEAN_MOTION_DOT": 0.00070368, "MEAN_MOTION_DDOT": 0}, "tle": {"line1": "1 65943U 98067XQ  25352.35057484  .00070368  00000+0  84620-3 0  9996", "line2": "2 65943  51.6302 111.7666 0001345 249.8249 110.2600 15.60193795 10732"}}, "geometry": {"type": "Point", "coordinates": [-27.306321700549702, -45.135326618946195]}}]}